TIROS N [P]             
1 11060U 78096A   09160.01004725  .00000007  00000-0  25869-4 0  2065
2 11060  98.9290 130.4780 0011499  42.3181 317.8878 14.17477588797796
NOAA 1 [-]              
1 04793U 70106A   09159.55255903 -.00000031  00000-0  10000-3 0  1884
2 04793 102.0757 150.1142 0032287  93.7611 266.7153 12.53929004761830
NOAA 2 [-]              
1 06235U 72082A   09160.09129200 -.00000027  00000-0  10000-3 0  2878
2 06235 101.4009 178.3305 0003502 304.9311  55.1432 12.53002946676451
NOAA 3 [-]              
1 06920U 73086A   09159.86804708 -.00000030  00000-0  10000-3 0  1783
2 06920 101.7267 182.4747 0006336 183.6824 176.4194 12.40297436611240
NOAA 4 [-]              
1 07529U 74089A   09159.54622925 -.00000027  00000-0  10000-3 0  1907
2 07529 101.4420 184.5952 0009467 336.4065  23.6568 12.53052303580966
NOAA 5 [-]              
1 09057U 76077A   09160.13217188 -.00000031  00000-0  10000-3 0   647
2 09057 101.9195 202.6040 0010141   4.7395 355.3755 12.37840333485484
NOAA 6 [P]              
1 11416U 79057A   09159.17407077  .00000036  00000-0  29120-4 0  8679
2 11416  98.4073 174.3659 0009564 292.6978  67.3199 14.31920806560424
NOAA 7 [-]              
1 12553U 81059A   09159.88602326 -.00000002  00000-0  20502-4 0  9859
2 12553  98.6530 113.7996 0011605 345.9886  14.0964 14.16764774444352
NOAA 8 [-]              
1 13923U 83022A   09159.73241821  .00000013  00000-0  22755-4 0  8791
2 13923  98.5599 189.7730 0016262 131.0649 229.1928 14.27704657363649
NOAA 9 [P]              
1 15427U 84123A   09159.16925070  .00000136  00000-0  90456-4 0  7010
2 15427  98.4381 157.3572 0015973  85.8815 274.4161 14.15322526263685
NOAA 10 [-]             
1 16969U 86073A   09159.25471932 -.00000030  00000-0  58425-5 0  6419
2 16969  98.6903 185.9506 0011594 220.7130 139.3201 14.27387782182231
NOAA 11 [-]             
1 19531U 88089A   09159.29714586  .00000228  00000-0  14047-3 0  6547
2 19531  98.7846 249.3870 0012200 131.1794 229.0438 14.14897574 68267
NOAA 12 [B]             
1 21263U 91032A   09159.47441004  .00000028  00000-0  30613-4 0  1435
2 21263  98.7708 167.5312 0012335 166.7634 193.3872 14.25581538939159
NOAA 13 [-]             
1 22739U 93050A   09159.20058478 -.00000026  00000-0  99290-5 0  7348
2 22739  98.8699 239.4130 0008868 225.0038 135.0425 14.12219429815690
NOAA 14 [-]             
1 23455U 94089A   09159.39487815  .00000160  00000-0  10799-3 0  6452
2 23455  98.9093 237.1054 0009076 210.7296 149.3336 14.13764396744682
NOAA 15 [+]             
1 25338U 98030A   09159.34484561  .00000178  00000-0  94986-4 0  9569
2 25338  98.5832 148.7457 0011785  84.4877 275.7645 14.24765348575517
NOAA 16 [+]             
1 26536U 00055A   09159.36721539 -.00000101  00000-0 -29248-4 0  4338
2 26536  99.1760 162.8201 0009780 310.1278  49.9050 14.12519711449053
NOAA 17 [+]             
1 27453U 02032A   09159.42869030  .00000011  00000-0  23154-4 0  4417
2 27453  98.4852 218.8003 0012297 145.3253 214.8754 14.24067950361509
NOAA 18 [+]             
1 28654U 05018A   09159.39757822  .00000251  00000-0  16345-3 0  9301
2 28654  98.9075 102.7057 0014897  31.3723 328.8328 14.11263550208715
NOAA 19 [S]             
1 33591U 09005A   09159.44658228 -.00000109  00000-0 -36818-4 0  1330
2 33591  98.7466 105.4361 0013050 268.8715  91.0953 14.10962432 17208
